[{"OBJECT_NAME":"RROCI-2","OBJECT_ID":"2024-043J","EPOCH":"2026-03-09T21:40:56.693280","MEAN_MOTION":14.99383357,"ECCENTRICITY":0.00054118,"INCLINATION":97.8279,"RA_OF_ASC_NODE":200.9973,"ARG_OF_PERICENTER":337.3784,"MEAN_ANOMALY":22.7199,"EPHEMERIS_TYPE":0,"CLASSIFICATION_TYPE":"U","NORAD_CAT_ID":59106,"ELEMENT_SET_NO":999,"REV_AT_EPOCH":10988,"BSTAR":0.00035067832,"MEAN_MOTION_DOT":4.232e-5,"MEAN_MOTION_DDOT":0},{"OBJECT_NAME":"STARLINK-34693","OBJECT_ID":"2025-150D","EPOCH":"2026-03-09T13:35:23.471232","MEAN_MOTION":14.98331008,"ECCENTRICITY":0.0004041,"INCLINATION":70.0011,"RA_OF_ASC_NODE":134.9527,"ARG_OF_PERICENTER":272.5414,"MEAN_ANOMALY":87.5283,"EPHEMERIS_TYPE":0,"CLASSIFICATION_TYPE":"U","NORAD_CAT_ID":64793,"ELEMENT_SET_NO":999,"REV_AT_EPOCH":3649,"BSTAR":0.00037361,"MEAN_MOTION_DOT":4.368e-5,"MEAN_MOTION_DDOT":0}]
